[{"OBJECT_NAME":"DMSP 5D-3 F16 (USA 172)","OBJECT_ID":"2003-048A","EPOCH":"2026-04-04T05:52:54.926688","MEAN_MOTION":14.14472452,"ECCENTRICITY":0.00070339,"INCLINATION":98.9961,"RA_OF_ASC_NODE":117.5625,"ARG_OF_PERICENTER":6.0333,"MEAN_ANOMALY":56.9765,"EPHEMERIS_TYPE":0,"CLASSIFICATION_TYPE":"U","NORAD_CAT_ID":28054,"ELEMENT_SET_NO":999,"REV_AT_EPOCH":15903,"BSTAR":0.00012333719,"MEAN_MOTION_DOT":1.91e-6,"MEAN_MOTION_DDOT":0},{"OBJECT_NAME":"METEOSAT-9 (MSG-2)","OBJECT_ID":"2005-049B","EPOCH":"2026-04-03T23:18:49.449024","MEAN_MOTION":1.00273367,"ECCENTRICITY":5.947e-5,"INCLINATION":9.1959,"RA_OF_ASC_NODE":54.8826,"ARG_OF_PERICENTER":40.9643,"MEAN_ANOMALY":131.8166,"EPHEMERIS_TYPE":0,"CLASSIFICATION_TYPE":"U","NORAD_CAT_ID":28912,"ELEMENT_SET_NO":999,"REV_AT_EPOCH":625,"BSTAR":0,"MEAN_MOTION_DOT":1.26e-6,"MEAN_MOTION_DDOT":0},{"OBJECT_NAME":"DMSP 5D-3 F17 (USA 191)","OBJECT_ID":"2006-050A","EPOCH":"2026-04-04T04:55:30.026496","MEAN_MOTION":14.14976207,"ECCENTRICITY":0.00088982,"INCLINATION":98.7409,"RA_OF_ASC_NODE":102.2829,"ARG_OF_PERICENTER":267.1742,"MEAN_ANOMALY":92.8414,"EPHEMERIS_TYPE":0,"CLASSIFICATION_TYPE":"U","NORAD_CAT_ID":29522,"ELEMENT_SET_NO":999,"REV_AT_EPOCH":196,"BSTAR":0.00015526734,"MEAN_MOTION_DOT":2.57e-6,"MEAN_MOTION_DDOT":0},{"OBJECT_NAME":"FENGYUN 3A","OBJECT_ID":"2008-026A","EPOCH":"2026-04-04T06:00:53.859168","MEAN_MOTION":14.19554703,"ECCENTRICITY":0.00084967,"INCLINATION":98.6833,"RA_OF_ASC_NODE":36.4895,"ARG_OF_PERICENTER":348.5738,"MEAN_ANOMALY":11.5245,"EPHEMERIS_TYPE":0,"CLASSIFICATION_TYPE":"U","NORAD_CAT_ID":32958,"ELEMENT_SET_NO":999,"REV_AT_EPOCH":92491,"BSTAR":9.9802004e-5,"MEAN_MOTION_DOT":1.67e-6,"MEAN_MOTION_DDOT":0},{"OBJECT_NAME":"GOES 14","OBJECT_ID":"2009-033A","EPOCH":"2026-04-04T04:35:38.555808","MEAN_MOTION":1.00111592,"ECCENTRICITY":0.00018234,"INCLINATION":1.4992,"RA_OF_ASC_NODE":83.9394,"ARG_OF_PERICENTER":295.6803,"MEAN_ANOMALY":65.207,"EPHEMERIS_TYPE":0,"CLASSIFICATION_TYPE":"U","NORAD_CAT_ID":35491,"ELEMENT_SET_NO":999,"REV_AT_EPOCH":584,"BSTAR":0,"MEAN_MOTION_DOT":4.9e-7,"MEAN_MOTION_DDOT":0},{"OBJECT_NAME":"DMSP 5D-3 F18 (USA 210)","OBJECT_ID":"2009-057A","EPOCH":"2026-04-04T05:48:12.227616","MEAN_MOTION":14.14853469,"ECCENTRICITY":0.00121991,"INCLINATION":98.9,"RA_OF_ASC_NODE":75.192,"ARG_OF_PERICENTER":99.8751,"MEAN_ANOMALY":260.38,"EPHEMERIS_TYPE":0,"CLASSIFICATION_TYPE":"U","NORAD_CAT_ID":35951,"ELEMENT_SET_NO":999,"REV_AT_EPOCH":84913,"BSTAR":0.00021099774,"MEAN_MOTION_DOT":3.63e-6,"MEAN_MOTION_DDOT":0},{"OBJECT_NAME":"EWS-G2 (GOES 15)","OBJECT_ID":"2010-008A","EPOCH":"2026-04-04T04:31:49.429056","MEAN_MOTION":1.00271551,"ECCENTRICITY":0.00032997,"INCLINATION":1.0837,"RA_OF_ASC_NODE":84.3159,"ARG_OF_PERICENTER":17.6509,"MEAN_ANOMALY":221.7739,"EPHEMERIS_TYPE":0,"CLASSIFICATION_TYPE":"U","NORAD_CAT_ID":36411,"ELEMENT_SET_NO":999,"REV_AT_EPOCH":5889,"BSTAR":0,"MEAN_MOTION_DOT":2.2e-7,"MEAN_MOTION_DDOT":0},{"OBJECT_NAME":"COMS 1","OBJECT_ID":"2010-032A","EPOCH":"2026-04-04T06:08:38.620320","MEAN_MOTION":1.00272821,"ECCENTRICITY":0.00012902,"INCLINATION":4.6142,"RA_OF_ASC_NODE":76.3826,"ARG_OF_PERICENTER":319.9019,"MEAN_ANOMALY":16.6027,"EPHEMERIS_TYPE":0,"CLASSIFICATION_TYPE":"U","NORAD_CAT_ID":36744,"ELEMENT_SET_NO":999,"REV_AT_EPOCH":5034,"BSTAR":0,"MEAN_MOTION_DOT":-3.42e-6,"MEAN_MOTION_DDOT":0},{"OBJECT_NAME":"FENGYUN 3B","OBJECT_ID":"2010-059A","EPOCH":"2026-04-04T06:35:23.612640","MEAN_MOTION":14.14826004,"ECCENTRICITY":0.0022709,"INCLINATION":98.9709,"RA_OF_ASC_NODE":139.9476,"ARG_OF_PERICENTER":38.5633,"MEAN_ANOMALY":92.1371,"EPHEMERIS_TYPE":0,"CLASSIFICATION_TYPE":"U","NORAD_CAT_ID":37214,"ELEMENT_SET_NO":999,"REV_AT_EPOCH":79697,"BSTAR":0.00026906855,"MEAN_MOTION_DOT":4.75e-6,"MEAN_MOTION_DDOT":0},{"OBJECT_NAME":"SUOMI NPP","OBJECT_ID":"2011-061A","EPOCH":"2026-04-04T06:13:19.358976","MEAN_MOTION":14.19500925,"ECCENTRICITY":0.00020095,"INCLINATION":98.7903,"RA_OF_ASC_NODE":35.6628,"ARG_OF_PERICENTER":144.6996,"MEAN_ANOMALY":215.4314,"EPHEMERIS_TYPE":0,"CLASSIFICATION_TYPE":"U","NORAD_CAT_ID":37849,"ELEMENT_SET_NO":999,"REV_AT_EPOCH":74795,"BSTAR":9.3083831e-5,"MEAN_MOTION_DOT":1.52e-6,"MEAN_MOTION_DDOT":0},{"OBJECT_NAME":"METEOSAT-10 (MSG-3)","OBJECT_ID":"2012-035B","EPOCH":"2026-04-04T04:13:43.663584","MEAN_MOTION":1.00273251,"ECCENTRICITY":0.00024263,"INCLINATION":4.4973,"RA_OF_ASC_NODE":61.3269,"ARG_OF_PERICENTER":295.6453,"MEAN_ANOMALY":259.02,"EPHEMERIS_TYPE":0,"CLASSIFICATION_TYPE":"U","NORAD_CAT_ID":38552,"ELEMENT_SET_NO":999,"REV_AT_EPOCH":5011,"BSTAR":0,"MEAN_MOTION_DOT":-5.0e-8,"MEAN_MOTION_DDOT":0},{"OBJECT_NAME":"METOP-B","OBJECT_ID":"2012-049A","EPOCH":"2026-04-04T04:59:42.828576","MEAN_MOTION":14.2142752,"ECCENTRICITY":0.00024148,"INCLINATION":98.6586,"RA_OF_ASC_NODE":147.1564,"ARG_OF_PERICENTER":172.2208,"MEAN_ANOMALY":187.9007,"EPHEMERIS_TYPE":0,"CLASSIFICATION_TYPE":"U","NORAD_CAT_ID":38771,"ELEMENT_SET_NO":999,"REV_AT_EPOCH":70275,"BSTAR":0.00011894858,"MEAN_MOTION_DOT":2.17e-6,"MEAN_MOTION_DDOT":0},{"OBJECT_NAME":"INSAT-3D","OBJECT_ID":"2013-038B","EPOCH":"2026-04-04T06:08:38.620320","MEAN_MOTION":1.00272148,"ECCENTRICITY":0.00017699,"INCLINATION":1.7354,"RA_OF_ASC_NODE":83.4645,"ARG_OF_PERICENTER":264.8872,"MEAN_ANOMALY":65.8685,"EPHEMERIS_TYPE":0,"CLASSIFICATION_TYPE":"U","NORAD_CAT_ID":39216,"ELEMENT_SET_NO":999,"REV_AT_EPOCH":4633,"BSTAR":0,"MEAN_MOTION_DOT":-3.39e-6,"MEAN_MOTION_DDOT":0},{"OBJECT_NAME":"FENGYUN 3C","OBJECT_ID":"2013-052A","EPOCH":"2026-04-04T06:14:30.551712","MEAN_MOTION":14.15737621,"ECCENTRICITY":0.00136532,"INCLINATION":98.4929,"RA_OF_ASC_NODE":71.5533,"ARG_OF_PERICENTER":233.6697,"MEAN_ANOMALY":126.3218,"EPHEMERIS_TYPE":0,"CLASSIFICATION_TYPE":"U","NORAD_CAT_ID":39260,"ELEMENT_SET_NO":999,"REV_AT_EPOCH":64810,"BSTAR":0.00011944614,"MEAN_MOTION_DOT":1.93e-6,"MEAN_MOTION_DDOT":0},{"OBJECT_NAME":"METEOR-M 2","OBJECT_ID":"2014-037A","EPOCH":"2026-04-04T05:39:03.222144","MEAN_MOTION":14.21439577,"ECCENTRICITY":0.00045269,"INCLINATION":98.5062,"RA_OF_ASC_NODE":72.6164,"ARG_OF_PERICENTER":249.6621,"MEAN_ANOMALY":110.4071,"EPHEMERIS_TYPE":0,"CLASSIFICATION_TYPE":"U","NORAD_CAT_ID":40069,"ELEMENT_SET_NO":999,"REV_AT_EPOCH":60881,"BSTAR":0.00011821436,"MEAN_MOTION_DOT":2.16e-6,"MEAN_MOTION_DDOT":0},{"OBJECT_NAME":"HIMAWARI-8","OBJECT_ID":"2014-060A","EPOCH":"2026-04-04T06:00:38.398752","MEAN_MOTION":1.00271542,"ECCENTRICITY":0.00010055,"INCLINATION":0.0178,"RA_OF_ASC_NODE":197.2663,"ARG_OF_PERICENTER":166.2793,"MEAN_ANOMALY":59.836,"EPHEMERIS_TYPE":0,"CLASSIFICATION_TYPE":"U","NORAD_CAT_ID":40267,"ELEMENT_SET_NO":999,"REV_AT_EPOCH":4201,"BSTAR":0,"MEAN_MOTION_DOT":0,"MEAN_MOTION_DDOT":0},{"OBJECT_NAME":"FENGYUN 2G","OBJECT_ID":"2014-090A","EPOCH":"2026-04-03T09:52:32.589120","MEAN_MOTION":1.00261841,"ECCENTRICITY":0.00014125,"INCLINATION":5.451,"RA_OF_ASC_NODE":73.7085,"ARG_OF_PERICENTER":141.4409,"MEAN_ANOMALY":224.0023,"EPHEMERIS_TYPE":0,"CLASSIFICATION_TYPE":"U","NORAD_CAT_ID":40367,"ELEMENT_SET_NO":999,"REV_AT_EPOCH":4125,"BSTAR":0,"MEAN_MOTION_DOT":-2.98e-6,"MEAN_MOTION_DDOT":0}]
