DMSP 5D-3 F16 (USA 172) 
1 28054U 03048A   26094.24508017  .00000191  00000+0  12334-3 0  9998
2 28054  98.9961 117.5625 0007033   6.0333  56.9765 14.14472452159038
METEOSAT-9 (MSG-2)      
1 28912U 05049B   26093.97140566  .00000126  00000+0  00000+0 0  9995
2 28912   9.1959  54.8826 0000594  40.9643 131.8166  1.00273367  6252
DMSP 5D-3 F17 (USA 191) 
1 29522U 06050A   26094.20520864  .00000257  00000+0  15527-3 0  9995
2 29522  98.7409 102.2829 0008898 267.1742  92.8414 14.14976207  1960
FENGYUN 3A              
1 32958U 08026A   26094.25062337  .00000167  00000+0  99802-4 0  9997
2 32958  98.6833  36.4895 0008496 348.5738  11.5245 14.19554703924918
GOES 14                 
1 35491U 09033A   26094.19141847  .00000049  00000+0  00000+0 0  9994
2 35491   1.4992  83.9394 0001823 295.6803  65.2070  1.00111592  5849
DMSP 5D-3 F18 (USA 210) 
1 35951U 09057A   26094.24180819  .00000363  00000+0  21100-3 0  9996
2 35951  98.9000  75.1920 0012199  99.8751 260.3800 14.14853469849135
EWS-G2 (GOES 15)        
1 36411U 10008A   26094.18876654  .00000022  00000+0  00000+0 0  9992
2 36411   1.0837  84.3159 0003299  17.6509 221.7739  1.00271551 58890
COMS 1                  
1 36744U 10032A   26094.25600255 -.00000342  00000+0  00000+0 0  9994
2 36744   4.6142  76.3826 0001290 319.9019  16.6027  1.00272821 50346
FENGYUN 3B              
1 37214U 10059A   26094.27457885  .00000475  00000+0  26907-3 0  9991
2 37214  98.9709 139.9476 0022709  38.5633  92.1371 14.14826004796979
SUOMI NPP               
1 37849U 11061A   26094.25925184  .00000152  00000+0  93084-4 0  9992
2 37849  98.7903  35.6628 0002009 144.6996 215.4314 14.19500925747957
METEOSAT-10 (MSG-3)     
1 38552U 12035B   26094.17619981 -.00000005  00000+0  00000+0 0  9991
2 38552   4.4973  61.3269 0002426 295.6453 259.0200  1.00273251 50113
METOP-B                 
1 38771U 12049A   26094.20813459  .00000217  00000+0  11895-3 0  9991
2 38771  98.6586 147.1564 0002414 172.2208 187.9007 14.21427520702752
INSAT-3D                
1 39216U 13038B   26094.25600255 -.00000339  00000+0  00000+0 0  9996
2 39216   1.7354  83.4645 0001769 264.8872  65.8685  1.00272148 46332
FENGYUN 3C              
1 39260U 13052A   26094.26007583  .00000193  00000+0  11945-3 0  9998
2 39260  98.4929  71.5533 0013653 233.6697 126.3218 14.15737621648100
METEOR-M 2              
1 40069U 14037A   26094.23545396  .00000216  00000+0  11821-3 0  9996
2 40069  98.5062  72.6164 0004526 249.6621 110.4071 14.21439577608814
HIMAWARI-8              
1 40267U 14060A   26094.25044443  .00000000  00000+0  00000+0 0  9995
2 40267   0.0178 197.2663 0001005 166.2793  59.8360  1.00271542 42011
FENGYUN 2G              
1 40367U 14090A   26093.41148830 -.00000298  00000+0  00000+0 0  9991
2 40367   5.4510  73.7085 0001412 141.4409 224.0023  1.00261841 41256
